SKYSAT-A                
1 39418U 13066C   26082.86031488  .00003246  00000+0  18955-3 0  9992
2 39418  97.3920 134.9626 0020077 247.4521 112.4585 15.12453089675584
SKYSAT-B                
1 40072U 14037D   26082.78608495  .00001586  00000+0  18048-3 0  9996
2 40072  98.3752  36.9436 0005302 181.0900 179.0304 14.87776582633268
SKYSAT-C1               
1 41601U 16040C   26082.85006964  .00010326  00000+0  30816-3 0  9991
2 41601  96.9672 119.2387 0002151  23.9381 336.1963 15.34798685544773
SKYSAT-C4               
1 41771U 16058B   26082.96327415  .00017174  00000+0  35497-3 0  9995
2 41771  96.9272 108.4278 0002105 133.9438 226.1987 15.45874285532291
SKYSAT-C5               
1 41772U 16058C   26082.39203042  .00010520  00000+0  31937-3 0  9995
2 41772  97.0583 126.8628 0001037 148.1540 211.9767 15.34255747530590
SKYSAT-C2               
1 41773U 16058D   26082.80944808  .00012405  00000+0  31195-3 0  9994
2 41773  97.0265 108.2009 0003710  35.3703 324.7789 15.40074201531907
SKYSAT-C3               
1 41774U 16058E   26082.51513390  .00019041  00000+0  35385-3 0  9999
2 41774  96.9151 116.8045 0002154 117.6083 242.5389 15.48940520532831
SKYSAT-C11              
1 42987U 17068A   26082.95768122  .00028443  00000+0  45133-3 0  9999
2 42987  97.4235 228.4280 0000209 140.5930 219.5338 15.53334958469995
SKYSAT-C10              
1 42988U 17068B   26082.89759240  .00010834  00000+0  34211-3 0  9994
2 42988  97.4367 219.0815 0001045 102.1325 258.0034 15.33010812469284
SKYSAT-C9               
1 42989U 17068C   26082.88622844  .00015129  00000+0  38876-3 0  9996
2 42989  97.4290 219.2280 0009900  87.3297 272.9081 15.39335921469620
SKYSAT-C8               
1 42990U 17068D   26082.92768355  .00012494  00000+0  36858-3 0  9991
2 42990  97.4381 218.5996 0001261  95.8657 264.2730 15.35136827469226
SKYSAT-C7               
1 42991U 17068E   26082.91821502  .00012648  00000+0  37338-3 0  9990
2 42991  97.4393 219.5738 0006938  60.8557 299.3380 15.35089267469283
SKYSAT-C12              
1 43797U 18099AR  26082.80536596  .00016125  00000+0  33057-3 0  9992
2 43797  96.9359 109.6058 0006297 103.3947 256.8006 15.46109074408650
SKYSAT-C13              
1 43802U 18099AW  26082.55255910  .00089267  00000+0  49242-3 0  9999
2 43802  96.9365 130.2421 0005361 159.4035 200.7451 15.79392393409353
