[ {"OBJECT_NAME": "SKYSAT-A", "NORAD_CAT_ID": 39418, "MEAN_MOTION": 15.12453089, "ECCENTRICITY": 0.0020077, "INCLINATION": 97.392, "RA_OF_ASC_NODE": 134.9626, "ARG_OF_PERICENTER": 247.4521, "MEAN_ANOMALY": 112.4585, "BSTAR": 0.00018955, "EPOCH": "2026-03-23T20:38:51"}, {"OBJECT_NAME": "SKYSAT-C13", "NORAD_CAT_ID": 43802, "MEAN_MOTION": 15.79392393, "ECCENTRICITY": 0.0005361, "INCLINATION": 96.9365, "RA_OF_ASC_NODE": 130.2421, "ARG_OF_PERICENTER": 159.4035, "MEAN_ANOMALY": 200.7451, "BSTAR": 0.00049242, "EPOCH": "2026-03-23T13:15:41"}, {"OBJECT_NAME": "SKYSAT-C11", "NORAD_CAT_ID": 42987, "MEAN_MOTION": 15.53334958, "ECCENTRICITY": 2.09e-05, "INCLINATION": 97.4235, "RA_OF_ASC_NODE": 228.428, "ARG_OF_PERICENTER": 140.593, "MEAN_ANOMALY": 219.5338, "BSTAR": 0.00045133, "EPOCH": "2026-03-23T22:59:03"}, {"OBJECT_NAME": "SKYSAT-C12", "NORAD_CAT_ID": 43797, "MEAN_MOTION": 15.46109074, "ECCENTRICITY": 0.0006297, "INCLINATION": 96.9359, "RA_OF_ASC_NODE": 109.6058, "ARG_OF_PERICENTER": 103.3947, "MEAN_ANOMALY": 256.8006, "BSTAR": 0.00033057, "EPOCH": "2026-03-23T19:19:43"}, {"OBJECT_NAME": "SKYSAT-C1", "NORAD_CAT_ID": 41601, "MEAN_MOTION": 15.34798685, "ECCENTRICITY": 0.0002151, "INCLINATION": 96.9672, "RA_OF_ASC_NODE": 119.2387, "ARG_OF_PERICENTER": 23.9381, "MEAN_ANOMALY": 336.1963, "BSTAR": 0.00030816, "EPOCH": "2026-03-23T20:24:06"}, {"OBJECT_NAME": "SKYSAT-C2", "NORAD_CAT_ID": 41773, "MEAN_MOTION": 15.40074201, "ECCENTRICITY": 0.000371, "INCLINATION": 97.0265, "RA_OF_ASC_NODE": 108.2009, "ARG_OF_PERICENTER": 35.3703, "MEAN_ANOMALY": 324.7789, "BSTAR": 0.00031195, "EPOCH": "2026-03-23T19:25:36"}, {"OBJECT_NAME": "SKYSAT-C3", "NORAD_CAT_ID": 41774, "MEAN_MOTION": 15.4894052, "ECCENTRICITY": 0.0002154, "INCLINATION": 96.9151, "RA_OF_ASC_NODE": 116.8045, "ARG_OF_PERICENTER": 117.6083, "MEAN_ANOMALY": 242.5389, "BSTAR": 0.00035385, "EPOCH": "2026-03-23T12:21:47"}, {"OBJECT_NAME": "SKYSAT-B", "NORAD_CAT_ID": 40072, "MEAN_MOTION": 14.87776582, "ECCENTRICITY": 0.0005302, "INCLINATION": 98.3752, "RA_OF_ASC_NODE": 36.9436, "ARG_OF_PERICENTER": 181.09, "MEAN_ANOMALY": 179.0304, "BSTAR": 0.00018048, "EPOCH": "2026-03-23T18:51:57"}, {"OBJECT_NAME": "SKYSAT-C10", "NORAD_CAT_ID": 42988, "MEAN_MOTION": 15.33010812, "ECCENTRICITY": 0.0001045, "INCLINATION": 97.4367, "RA_OF_ASC_NODE": 219.0815, "ARG_OF_PERICENTER": 102.1325, "MEAN_ANOMALY": 258.0034, "BSTAR": 0.00034211, "EPOCH": "2026-03-23T21:32:31"}, {"OBJECT_NAME": "SKYSAT-C4", "NORAD_CAT_ID": 41771, "MEAN_MOTION": 15.45874285, "ECCENTRICITY": 0.0002105, "INCLINATION": 96.9272, "RA_OF_ASC_NODE": 108.4278, "ARG_OF_PERICENTER": 133.9438, "MEAN_ANOMALY": 226.1987, "BSTAR": 0.00035497, "EPOCH": "2026-03-23T23:07:06"}, {"OBJECT_NAME": "SKYSAT-C5", "NORAD_CAT_ID": 41772, "MEAN_MOTION": 15.34255747, "ECCENTRICITY": 0.0001037, "INCLINATION": 97.0583, "RA_OF_ASC_NODE": 126.8628, "ARG_OF_PERICENTER": 148.154, "MEAN_ANOMALY": 211.9767, "BSTAR": 0.00031937, "EPOCH": "2026-03-23T09:24:31"}, {"OBJECT_NAME": "SKYSAT-C9", "NORAD_CAT_ID": 42989, "MEAN_MOTION": 15.39335921, "ECCENTRICITY": 0.00099, "INCLINATION": 97.429, "RA_OF_ASC_NODE": 219.228, "ARG_OF_PERICENTER": 87.3297, "MEAN_ANOMALY": 272.9081, "BSTAR": 0.00038876, "EPOCH": "2026-03-23T21:16:10"}, {"OBJECT_NAME": "SKYSAT-C8", "NORAD_CAT_ID": 42990, "MEAN_MOTION": 15.35136827, "ECCENTRICITY": 0.0001261, "INCLINATION": 97.4381, "RA_OF_ASC_NODE": 218.5996, "ARG_OF_PERICENTER": 95.8657, "MEAN_ANOMALY": 264.273, "BSTAR": 0.00036858, "EPOCH": "2026-03-23T22:15:51"}, {"OBJECT_NAME": "SKYSAT-C7", "NORAD_CAT_ID": 42991, "MEAN_MOTION": 15.35089267, "ECCENTRICITY": 0.0006938, "INCLINATION": 97.4393, "RA_OF_ASC_NODE": 219.5738, "ARG_OF_PERICENTER": 60.8557, "MEAN_ANOMALY": 299.338, "BSTAR": 0.00037338, "EPOCH": "2026-03-23T22:02:13"}]